SL-16 R/B               
1 25400U 98043G   26013.72320637  .00000041  00000+0  36183-4 0  9996
2 25400  98.8166 326.7276 0009966 167.8796 192.2625 14.26034339431154
SL-16 R/B               
1 25407U 98045B   26013.76177954  .00000007  00000+0  27728-4 0  9998
2 25407  71.0120 297.0857 0005332 118.2842 241.8820 14.16180038419324
ISS (ZARYA)             
1 25544U 98067A   26013.40249050  .00007693  00000+0  14621-3 0  9997
2 25544  51.6331 345.7221 0007764  13.3330 346.7863 15.49271194547761
CZ-4B R/B               
1 25732U 99025C   26013.71755561  .00000019  00000+0  29605-4 0  9998
2 25732  98.6727  59.2754 0037813 141.8793 327.9929 14.18252044380370
OKEAN-O                 
1 25860U 99039A   26013.76431034  .00000554  00000+0  79692-4 0  9991
2 25860  97.9556  74.1823 0001665 108.7482 251.3911 14.80225493426267
SL-16 R/B               
1 25861U 99039B   26013.72872552  .00000427  00000+0  61115-4 0  9992
2 25861  98.0080  72.8750 0016143  77.2347 283.0669 14.81639946428721
DELTA 2 R/B             
1 25876U 99041E   26013.71741206  .00002417  00000+0  42641-3 0  9994
2 25876  51.7608 160.7840 0503671 186.0314 173.4399 14.11545038355267
HELIOS 1B               
1 25977U 99064A   26013.69149371  .00001382  00000+0  15917-3 0  9999
2 25977  98.1747 274.3065 0000509 132.3672 227.7587 14.87434419677084
TERRA                   
1 25994U 99068A   26013.86659798  .00000317  00000+0  73734-4 0  9999
2 25994  97.9703  69.3648 0002443  26.8193  88.3193 14.60943319387071
SL-16 R/B               
1 26070U 00006B   26013.76288020 -.00000259  00000+0 -10719-3 0  9994
2 26070  71.0004 213.3262 0018988 265.7632  94.1321 14.15814218340780
TITAN 4B R/B            
1 26474U 00047B   26013.82579998  .00002511  00000+0  16431-3 0  9999
2 26474  67.9874 194.7237 0037063 104.7314 255.7948 15.09043959384637
ENVISAT                 
1 27386U 02009A   26013.88235310  .00000080  00000+0  39769-4 0  9994
2 27386  98.3642 328.8157 0001144  91.3938 287.3509 14.39012975251291
