CCSDS_OMM_VERS = 2.0
CREATION_DATE  = 
ORIGINATOR     = 

OBJECT_NAME    = SL-16 R/B
OBJECT_ID      = 1998-043G
CENTER_NAME    = EARTH
REF_FRAME      = TEME
TIME_SYSTEM    = UTC
MEAN_ELEMENT_THEORY = SGP/SGP4

EPOCH          = 2026-01-13T17:21:25.030368
MEAN_MOTION    = 14.26034339
ECCENTRICITY   = .00099667
INCLINATION    = 98.8166
RA_OF_ASC_NODE = 326.7276
ARG_OF_PERICENTER = 167.8796
MEAN_ANOMALY   = 192.2625

EPHEMERIS_TYPE = 0
CLASSIFICATION_TYPE = U
NORAD_CAT_ID   = 25400
ELEMENT_SET_NO = 999
REV_AT_EPOCH   = 43115
BSTAR          = .36183262E-4
MEAN_MOTION_DOT = .41E-6
MEAN_MOTION_DDOT = 0

CCSDS_OMM_VERS = 2.0
CREATION_DATE  = 
ORIGINATOR     = 

OBJECT_NAME    = SL-16 R/B
OBJECT_ID      = 1998-045B
CENTER_NAME    = EARTH
REF_FRAME      = TEME
TIME_SYSTEM    = UTC
MEAN_ELEMENT_THEORY = SGP/SGP4

EPOCH          = 2026-01-13T18:16:57.752256
MEAN_MOTION    = 14.16180038
ECCENTRICITY   = .00053327
INCLINATION    = 71.0120
RA_OF_ASC_NODE = 297.0857
ARG_OF_PERICENTER = 118.2842
MEAN_ANOMALY   = 241.8820

EPHEMERIS_TYPE = 0
CLASSIFICATION_TYPE = U
NORAD_CAT_ID   = 25407
ELEMENT_SET_NO = 999
REV_AT_EPOCH   = 41932
BSTAR          = .27727783E-4
MEAN_MOTION_DOT = .7E-7
MEAN_MOTION_DDOT = 0

CCSDS_OMM_VERS = 2.0
CREATION_DATE  = 
ORIGINATOR     = 

OBJECT_NAME    = ISS (ZARYA)
OBJECT_ID      = 1998-067A
CENTER_NAME    = EARTH
REF_FRAME      = TEME
TIME_SYSTEM    = UTC
MEAN_ELEMENT_THEORY = SGP/SGP4

EPOCH          = 2026-01-13T09:39:35.179200
MEAN_MOTION    = 15.49271194
ECCENTRICITY   = .00077647
INCLINATION    = 51.6331
RA_OF_ASC_NODE = 345.7221
ARG_OF_PERICENTER = 13.3330
MEAN_ANOMALY   = 346.7863

EPHEMERIS_TYPE = 0
CLASSIFICATION_TYPE = U
NORAD_CAT_ID   = 25544
ELEMENT_SET_NO = 999
REV_AT_EPOCH   = 54776
BSTAR          = .14620922E-3
MEAN_MOTION_DOT = .7693E-4
MEAN_MOTION_DDOT = 0

CCSDS_OMM_VERS = 2.0
CREATION_DATE  = 
ORIGINATOR     = 

OBJECT_NAME    = CZ-4B R/B
OBJECT_ID      = 1999-025C
CENTER_NAME    = EARTH
REF_FRAME      = TEME
TIME_SYSTEM    = UTC
MEAN_ELEMENT_THEORY = SGP/SGP4

EPOCH          = 2026-01-13T17:13:16.804704
MEAN_MOTION    = 14.18252044
ECCENTRICITY   = .00378133
INCLINATION    = 98.6727
RA_OF_ASC_NODE = 59.2754
ARG_OF_PERICENTER = 141.8793
MEAN_ANOMALY   = 327.9929

EPHEMERIS_TYPE = 0
CLASSIFICATION_TYPE = U
NORAD_CAT_ID   = 25732
ELEMENT_SET_NO = 999
REV_AT_EPOCH   = 38037
BSTAR          = .29605061E-4
MEAN_MOTION_DOT = .19E-6
MEAN_MOTION_DDOT = 0

CCSDS_OMM_VERS = 2.0
CREATION_DATE  = 
ORIGINATOR     = 

OBJECT_NAME    = OKEAN-O
OBJECT_ID      = 1999-039A
CENTER_NAME    = EARTH
REF_FRAME      = TEME
TIME_SYSTEM    = UTC
MEAN_ELEMENT_THEORY = SGP/SGP4

EPOCH          = 2026-01-13T18:20:36.413376
MEAN_MOTION    = 14.80225493
ECCENTRICITY   = .0001665
INCLINATION    = 97.9556
RA_OF_ASC_NODE = 74.1823
ARG_OF_PERICENTER = 108.7482
MEAN_ANOMALY   = 251.3911

EPHEMERIS_TYPE = 0
CLASSIFICATION_TYPE = U
NORAD_CAT_ID   = 25860
ELEMENT_SET_NO = 999
REV_AT_EPOCH   = 42626
BSTAR          = .79692223E-4
MEAN_MOTION_DOT = .554E-5
MEAN_MOTION_DDOT = 0

CCSDS_OMM_VERS = 2.0
CREATION_DATE  = 
ORIGINATOR     = 

OBJECT_NAME    = SL-16 R/B
OBJECT_ID      = 1999-039B
CENTER_NAME    = EARTH
REF_FRAME      = TEME
TIME_SYSTEM    = UTC
MEAN_ELEMENT_THEORY = SGP/SGP4

EPOCH          = 2026-01-13T17:29:21.884928
MEAN_MOTION    = 14.81639946
ECCENTRICITY   = .00161434
INCLINATION    = 98.0080
RA_OF_ASC_NODE = 72.8750
ARG_OF_PERICENTER = 77.2347
MEAN_ANOMALY   = 283.0669

EPHEMERIS_TYPE = 0
CLASSIFICATION_TYPE = U
NORAD_CAT_ID   = 25861
ELEMENT_SET_NO = 999
REV_AT_EPOCH   = 42872
BSTAR          = .61114716E-4
MEAN_MOTION_DOT = .427E-5
MEAN_MOTION_DDOT = 0

CCSDS_OMM_VERS = 2.0
CREATION_DATE  = 
ORIGINATOR     = 

OBJECT_NAME    = DELTA 2 R/B
OBJECT_ID      = 1999-041E
CENTER_NAME    = EARTH
REF_FRAME      = TEME
TIME_SYSTEM    = UTC
MEAN_ELEMENT_THEORY = SGP/SGP4

EPOCH          = 2026-01-13T17:13:04.401984
MEAN_MOTION    = 14.11545038
ECCENTRICITY   = .05036717
INCLINATION    = 51.7608
RA_OF_ASC_NODE = 160.7840
ARG_OF_PERICENTER = 186.0314
MEAN_ANOMALY   = 173.4399

EPHEMERIS_TYPE = 0
CLASSIFICATION_TYPE = U
NORAD_CAT_ID   = 25876
ELEMENT_SET_NO = 999
REV_AT_EPOCH   = 35526
BSTAR          = .42641074E-3
MEAN_MOTION_DOT = .2417E-4
MEAN_MOTION_DDOT = 0

CCSDS_OMM_VERS = 2.0
CREATION_DATE  = 
ORIGINATOR     = 

OBJECT_NAME    = HELIOS 1B
OBJECT_ID      = 1999-064A
CENTER_NAME    = EARTH
REF_FRAME      = TEME
TIME_SYSTEM    = UTC
MEAN_ELEMENT_THEORY = SGP/SGP4

EPOCH          = 2026-01-13T16:35:45.056544
MEAN_MOTION    = 14.87434419
ECCENTRICITY   = .00005095
INCLINATION    = 98.1747
RA_OF_ASC_NODE = 274.3065
ARG_OF_PERICENTER = 132.3672
MEAN_ANOMALY   = 227.7587

EPHEMERIS_TYPE = 0
CLASSIFICATION_TYPE = U
NORAD_CAT_ID   = 25977
ELEMENT_SET_NO = 999
REV_AT_EPOCH   = 67708
BSTAR          = .15916725E-3
MEAN_MOTION_DOT = .1382E-4
MEAN_MOTION_DDOT = 0

CCSDS_OMM_VERS = 2.0
CREATION_DATE  = 
ORIGINATOR     = 

OBJECT_NAME    = TERRA
OBJECT_ID      = 1999-068A
CENTER_NAME    = EARTH
REF_FRAME      = TEME
TIME_SYSTEM    = UTC
MEAN_ELEMENT_THEORY = SGP/SGP4

EPOCH          = 2026-01-13T20:47:54.065472
MEAN_MOTION    = 14.60943319
ECCENTRICITY   = .00024439
INCLINATION    = 97.9703
RA_OF_ASC_NODE = 69.3648
ARG_OF_PERICENTER = 26.8193
MEAN_ANOMALY   = 88.3193

EPHEMERIS_TYPE = 0
CLASSIFICATION_TYPE = U
NORAD_CAT_ID   = 25994
ELEMENT_SET_NO = 999
REV_AT_EPOCH   = 38707
BSTAR          = .73733912E-4
MEAN_MOTION_DOT = .317E-5
MEAN_MOTION_DDOT = 0

CCSDS_OMM_VERS = 2.0
CREATION_DATE  = 
ORIGINATOR     = 

OBJECT_NAME    = SL-16 R/B
OBJECT_ID      = 2000-006B
CENTER_NAME    = EARTH
REF_FRAME      = TEME
TIME_SYSTEM    = UTC
MEAN_ELEMENT_THEORY = SGP/SGP4

EPOCH          = 2026-01-13T18:18:32.849280
MEAN_MOTION    = 14.15814218
ECCENTRICITY   = .00189883
INCLINATION    = 71.0004
RA_OF_ASC_NODE = 213.3262
ARG_OF_PERICENTER = 265.7632
MEAN_ANOMALY   = 94.1321

EPHEMERIS_TYPE = 0
CLASSIFICATION_TYPE = U
NORAD_CAT_ID   = 26070
ELEMENT_SET_NO = 999
REV_AT_EPOCH   = 34078
BSTAR          = -.10719424E-3
MEAN_MOTION_DOT = -.259E-5
MEAN_MOTION_DDOT = 0

CCSDS_OMM_VERS = 2.0
CREATION_DATE  = 
ORIGINATOR     = 

OBJECT_NAME    = TITAN 4B R/B
OBJECT_ID      = 2000-047B
CENTER_NAME    = EARTH
REF_FRAME      = TEME
TIME_SYSTEM    = UTC
MEAN_ELEMENT_THEORY = SGP/SGP4

EPOCH          = 2026-01-13T19:49:09.118272
MEAN_MOTION    = 15.09043959
ECCENTRICITY   = .00370634
INCLINATION    = 67.9874
RA_OF_ASC_NODE = 194.7237
ARG_OF_PERICENTER = 104.7314
MEAN_ANOMALY   = 255.7948

EPHEMERIS_TYPE = 0
CLASSIFICATION_TYPE = U
NORAD_CAT_ID   = 26474
ELEMENT_SET_NO = 999
REV_AT_EPOCH   = 38463
BSTAR          = .16430664E-3
MEAN_MOTION_DOT = .2511E-4
MEAN_MOTION_DDOT = 0

CCSDS_OMM_VERS = 2.0
CREATION_DATE  = 
ORIGINATOR     = 

OBJECT_NAME    = ENVISAT
OBJECT_ID      = 2002-009A
CENTER_NAME    = EARTH
REF_FRAME      = TEME
TIME_SYSTEM    = UTC
MEAN_ELEMENT_THEORY = SGP/SGP4

EPOCH          = 2026-01-13T21:10:35.307840
MEAN_MOTION    = 14.39012975
ECCENTRICITY   = .00011448
INCLINATION    = 98.3642
RA_OF_ASC_NODE = 328.8157
ARG_OF_PERICENTER = 91.3938
MEAN_ANOMALY   = 287.3509

EPHEMERIS_TYPE = 0
CLASSIFICATION_TYPE = U
NORAD_CAT_ID   = 27386
ELEMENT_SET_NO = 999
REV_AT_EPOCH   = 25129
BSTAR          = .39769488E-4
MEAN_MOTION_DOT = .8E-6
MEAN_MOTION_DDOT = 0

